{
    "links": {
        "self": "http://www.neowsapp.com/rest/v1/neo/3780766?api_key=iIulBulltgU6a56xZRHN4H3l9WmuAYTsLGpBGhQ2"
    },
    "id": "3780766",
    "neo_reference_id": "3780766",
    "name": "(2017 QF2)",
    "designation": "2017 QF2",
    "nasa_jpl_url": "http://ssd.jpl.nasa.gov/sbdb.cgi?sstr=3780766",
    "absolute_magnitude_h": 24.5,
    "estimated_diameter": {
        "kilometers": {
            "estimated_diameter_min": 0.0334622374,
            "estimated_diameter_max": 0.0748238376
        },
        "meters": {
            "estimated_diameter_min": 33.4622374455,
            "estimated_diameter_max": 74.8238376074
        },
        "miles": {
            "estimated_diameter_min": 0.0207924639,
            "estimated_diameter_max": 0.0464933628
        },
        "feet": {
            "estimated_diameter_min": 109.7842471007,
            "estimated_diameter_max": 245.4850393757
        }
    },
    "is_potentially_hazardous_asteroid": false,
    "close_approach_data": [
        {
            "close_approach_date": "2009-07-28",
            "close_approach_date_full": "2009-Jul-28 00:39",
            "epoch_date_close_approach": 1248741540000,
            "relative_velocity": {
                "kilometers_per_second": "17.9035054421",
                "kilometers_per_hour": "64452.6195915535",
                "miles_per_hour": "40048.3513234295"
            },
            "miss_distance": {
                "astronomical": "0.4889267905",
                "lunar": "190.1925215045",
                "kilometers": "73142406.444736235",
                "miles": "45448583.885920643"
            },
            "orbiting_body": "Earth"
        },
        {
            "close_approach_date": "2013-08-11",
            "close_approach_date_full": "2013-Aug-11 00:21",
            "epoch_date_close_approach": 1376180460000,
            "relative_velocity": {
                "kilometers_per_second": "11.8452657745",
                "kilometers_per_hour": "42642.9567880549",
                "miles_per_hour": "26496.6750108889"
            },
            "miss_distance": {
                "astronomical": "0.2962780088",
                "lunar": "115.2521454232",
                "kilometers": "44322559.044321256",
                "miles": "27540761.1080790928"
            },
            "orbiting_body": "Earth"
        },
        {
            "close_approach_date": "2015-06-25",
            "close_approach_date_full": "2015-Jun-25 04:32",
            "epoch_date_close_approach": 1435206720000,
            "relative_velocity": {
                "kilometers_per_second": "3.0024569974",
                "kilometers_per_hour": "10808.8451906759",
                "miles_per_hour": "6716.1960575063"
            },
            "miss_distance": {
                "astronomical": "1.7792822609",
                "lunar": "692.1407994901",
                "kilometers": "266176836.359424283",
                "miles": "165394616.6634617854"
            },
            "orbiting_body": "Juptr"
        },
        {
            "close_approach_date": "2017-08-31",
            "close_approach_date_full": "2017-Aug-31 07:27",
            "epoch_date_close_approach": 1504164420000,
            "relative_velocity": {
                "kilometers_per_second": "6.3070869371",
                "kilometers_per_hour": "22705.5129733804",
                "miles_per_hour": "14108.3227694874"
            },
            "miss_distance": {
                "astronomical": "0.1092271449",
                "lunar": "42.4893593661",
                "kilometers": "16340148.223221363",
                "miles": "10153297.2912582894"
            },
            "orbiting_body": "Earth"
        }
    ],
    "orbital_data": {
        "orbit_id": "4",
        "orbit_determination_date": "2017-09-24 06:22:52",
        "first_observation_date": "2017-08-18",
        "last_observation_date": "2017-09-23",
        "data_arc_in_days": 36,
        "observations_used": 22,
        "orbit_uncertainty": "6",
        "minimum_orbit_intersection": ".097432",
        "jupiter_tisserand_invariant": "3.214",
        "epoch_osculation": "2459000.5",
        "eccentricity": ".5625016071785012",
        "semi_major_axis": "2.522760830553984",
        "inclination": "1.216712770830776",
        "ascending_node_longitude": "9.306554757048543",
        "orbital_period": "1463.566788594439",
        "perihelion_distance": "1.103703808840398",
        "perihelion_argument": "337.9227699481155",
        "aphelion_distance": "3.941817852267571",
        "perihelion_time": "2459467.247921515150",
        "mean_anomaly": "245.1919481537132",
        "mean_motion": ".2459744254963123",
        "equinox": "J2000",
        "orbit_class": {
            "orbit_class_type": "AMO",
            "orbit_class_description": "Near-Earth asteroid orbits similar to that of 1221 Amor",
            "orbit_class_range": "1.017 AU < q (perihelion) < 1.3 AU"
        }
    },
    "is_sentry_object": false
}